ONEWEB-0545             
1 54647U 22166F   25018.90890658 -.00001092  00000+0 -26765-2 0  9995
2 54647  87.9315 346.4671 0001400  65.5807 294.5472 13.21829946103561
ONEWEB-0580             
1 54648U 22166G   25018.95780535  .00000017  00000+0  85605-5 0  9998
2 54648  87.9323 346.4421 0001779  68.9641 291.1683 13.21827194103612
ONEWEB-0582             
1 54649U 22166H   25018.92467450 -.00000266  00000+0 -67604-3 0  9999
2 54649  87.9323 346.4792 0001788  63.2182 296.9134 13.21824997103580
ONEWEB-0583             
1 54650U 22166J   25018.93573656 -.00000109  00000+0 -29500-3 0  9997
2 54650  87.9320 346.4738 0001696  80.0201 280.1124 13.21826047103599
ONEWEB-0584             
1 54651U 22166K   25018.95621568 -.00000009  00000+0 -53175-4 0  9991
2 54651  87.9327 346.4463 0001876  68.4205 291.7129 13.21828088104058
ONEWEB-0585             
1 54652U 22166L   25018.90576036  .00000041  00000+0  66956-4 0  9991
2 54652  87.9314 346.4597 0001868  83.7645 276.3701 13.21827620103585
ONEWEB-0586             
1 54653U 22166M   25018.99409025  .00000103  00000+0  21872-3 0  9990
2 54653  87.9319 346.4539 0001705  76.0009 284.1314 13.21829085104064
ONEWEB-0587             
1 54654U 22166N   25018.66667824  .00001160  00000+0  27765-2 0  9998
2 54654  87.9329 346.4708 0001985  88.9139 109.1756 13.21818405104172
